0 THORAD AGENA D DEB
1 04773U 70025DT  13281.76691685  .00000578  00000-0  91720-3 0  2960
2 04773 099.8517 203.3257 0029627 219.1657 194.8206 13.53978764140717
0 THORAD AGENA D DEB
1 04773U 70025DT  13283.26541487  .00000573  00000-0  90979-3 0  2972
2 04773 099.8519 204.8174 0029638 215.2574 299.1710 13.53981751140911
0 THORAD AGENA D DEB
1 04773U 70025DT  13286.36052244  .00000550  00000-0  87635-3 0  2996
2 04773 099.8524 207.8985 0029672 207.2628 266.0734 13.53985038141337
0 THORAD AGENA D DEB
1 04773U 70025DT  13287.39448723  .00000590  00000-0  93485-3 0  3008
2 04773 099.8526 208.9276 0029703 204.6147 266.0555 13.53986273141474
0 THORAD AGENA D DEB
1 04773U 70025DT  13288.78815781  .00000671  00000-0  10545-2 0  3010
2 04773 099.8528 210.3150 0029730 201.0023 219.4475 13.53988608141666
0 THORAD AGENA D DEB
1 04773U 70025DT  13290.04579061  .00000646  00000-0  10173-2 0  3020
2 04773 099.8528 211.5671 0029749 197.7537 229.7255 13.53990375141831
0 THORAD AGENA D DEB
1 04773U 70025DT  13291.38542118  .00000652  00000-0  10262-2 0  3038
2 04773 099.8529 212.9009 0029776 194.3047 279.6964 13.53992170142018
0 THORAD AGENA D DEB
1 04773U 70025DT  13292.70405572  .00000717  00000-0  11219-2 0  3043
2 04773 099.8528 214.2138 0029812 190.8943 227.3477 13.53993707142197
0 THORAD AGENA D DEB
1 04773U 70025DT  13293.73745102  .00000712  00000-0  11140-2 0  3052
2 04773 099.8527 215.2427 0029853 188.2533 224.5812 13.53995295142331
0 THORAD AGENA D DEB
1 04773U 70025DT  13294.77225535  .00000714  00000-0  11173-2 0  3069
2 04773 099.8528 216.2730 0029889 185.6084 228.6876 13.53997055142477
